{
  "norad_id": 68346,
  "name": "STARLINK-37169",
  "history": [
    {
      "epoch": "2026-03-31T16:00:01.999584Z",
      "apogee_km": 319.5938333388667,
      "perigee_km": 318.73256053354,
      "latitude_deg": -34.24305381083486,
      "longitude_deg": 153.0097016082669,
      "height_km": 330.19310360057926,
      "semi_major_axis_km": 6697.300196936203,
      "eccentricity": 6.43e-05,
      "inclination_deg": 53.1592,
      "raan_deg": 252.5304,
      "arg_perigee_deg": 75.5653,
      "mean_anomaly_deg": 240.0732,
      "mean_motion_rev_day": 15.83992471
    }
  ]
}