STARLINK-37169          
1 68346U 26059AB  26090.66668981 -.01968431  00000+0 -99069-2 0  9994
2 68346  53.1592 252.5304 0000643  75.5653 240.0732 15.83992471  2570
